[{"OBJECT_NAME":"TIANMU-1 22","OBJECT_ID":"2023-208D","EPOCH":"2026-03-09T22:39:05.738688","MEAN_MOTION":15.29457749,"ECCENTRICITY":0.00031332,"INCLINATION":97.4379,"RA_OF_ASC_NODE":184.9419,"ARG_OF_PERICENTER":351.9312,"MEAN_ANOMALY":8.1877,"EPHEMERIS_TYPE":0,"CLASSIFICATION_TYPE":"U","NORAD_CAT_ID":58663,"ELEMENT_SET_NO":999,"REV_AT_EPOCH":12215,"BSTAR":0.00038239675,"MEAN_MOTION_DOT":0.00010851,"MEAN_MOTION_DDOT":0},{"OBJECT_NAME":"STARLINK-33615","OBJECT_ID":"2025-065AD","EPOCH":"2026-03-09T19:19:36.183360","MEAN_MOTION":15.27559051,"ECCENTRICITY":0.00017969,"INCLINATION":43.0001,"RA_OF_ASC_NODE":106.7116,"ARG_OF_PERICENTER":268.8354,"MEAN_ANOMALY":91.2292,"EPHEMERIS_TYPE":0,"CLASSIFICATION_TYPE":"U","NORAD_CAT_ID":63426,"ELEMENT_SET_NO":999,"REV_AT_EPOCH":5285,"BSTAR":0.00090472703,"MEAN_MOTION_DOT":0.00024702,"MEAN_MOTION_DDOT":0}]
